,Unnamed: 0,golf_name,before_name,핫딜,단독,num,classify01,hole_size,region,address,homepages,phone_num,green_fee(주중),green_fee(토요일),green_fee(일요일),green_fee(공휴일),cart_fee,caddie_fee
0,0,360도,,1,,116,대중제,18,경기,경기도 여주시 강천면 부평로 609,http://www.360cc.co.kr/,031-880-3600,200000,270000,270000,270000,100000,150000
2,2,썬 밸리 일죽 ,,1,,1573,대중제,18,충북,충북 음성군 삼성면 대사리 500-16,http://www.sunvalley.co.kr/iljuk/golf/intro,043-881-5307,200000,260000,260000,260000,100000,140000
3,3,88,,,,324,회원제,36,경기,경기도 용인시 기흥구 석성로 521번지 169,http://www.88countryclub.co.kr/,031-679-9776,187000,237000,237000,237000,90000,150000(18홀)/80000원(9홀)
4,4,BnBK스프링베일(P9),,,,956,대중제,9,강원,강원도 춘천시 동면 만천리 산 20,http://www.springvale.co.kr/,033-254-7900,월별상이,월별상이,월별상이,월별상이,(18홀)90000,노캐디
5,5,H1 CLUB,덕평,1,,1442,회원제,18,경기,경기도 이천시 호법면 장자터로 115,http://www.h1club.co.kr/,031-630-0900,200000,270000,270000,270000,100000,150000
6,6,SG아름다운,,,,404,대중제,27,충남,충남 아산시 영인면 영인산로 440,http://www.arumdaunresort.com/,1566-5855,190000,250000,250000,250000,90000,140000
7,7,감곡,,,,1541,대중제,18,충북,충북 음성군 감곡면 오갑길 195,http://www.gamgok.co.kr/,043-882-1600,200000,280000,280000,280000,100000,130000 / 5월부터 150000
8,8,강남300,,,1,132,회원제,18,경기,경기도 광주시 목동 497-6,http://www.kn300.com/main/main.asp,031-719-0300,220000,285000,285000,285000,120000,150000
10,10,강촌명문회원제,,1,,1087,회원제,27,강원,강원도 춘천시 남산면 북한강변길 688,http://www.elysian.co.kr/,033-260-2000,230000,260000,260000,260000,100000,130000
12,12,거제뷰,,,,193,대중제,18,경남,경상남도 거제면 옥산리 285-3,http://www.geojeview.co.kr/,055-639-2222,125000,155000,155000,155000,90000,130000
13,13,경주,,,,169,대중제,27,경북,경상북도 경주시 보문로 182-98번지,http://www.kyongjugolf.co.kr/,054-778-8989,월별상이,월별상이,월별상이,월별상이,80000,130000
14,14,고창,,1,,376,대중제,18,전북,전라북도 고창군 애향갯벌로 70,http://www.gochangcc.co.kr/,063-560-7744,월별상이,월별상이,월별상이,월별상이,80000,130000
16,16,골드,,,,429,회원제,36,경기,경기도 용인시 기흥구 기흥단지로 398,http://www.kgav.com/,02-777-2161,190000,260000,260000,260000,90000/4월1부터 100000,150000(3부 160000)
17,17,골드레이크,,,,352,회원제,18,전남,전라남도 나주시 나주호로 442-129,http://www.goldlake.co.kr/,061-339-3000,160000,200000,200000,200000,80000,130000
18,18,골든베이,,,,383,회원제,27,충남,충청남도 태안군 근흥면 정산포로 217,http://www.goldenbay.kr/golden/main.do,041-671-8000,160000,200000,200000,200000,90000,140000
19,19,골프존카운티 천안,버드우드,,,679,회원제,18,충남,충남 천안시 동남구 병천면 매성리 335-1번지,http://www.birdwood.co.kr/,041-558-9900,180000,220000,220000,220000,90000,130000
20,20,골프클럽Q,안성Q,,,1180,대중제,18,경기,경기도 안성시 죽산면 장계길 20-229,http://www.anseongq.com/index.asp,031)80467000,월별상이,월별상이,월별상이,월별상이,90000,150000
21,21,구니,,,,931,대중제,18,경북,경상북도 군위군 도군로 2450,http://www.gunicc.co.kr/,054-380-0000,150000,180000,180000,180000,90000(노캐디 110000),130000
22,22,군산,,1,,635,대중제,81,전북,전북 군산시 옥서면 옥봉리 1541-14,http://www.gunsancc.net/,063-472-3355,월별상이,월별상이,월별상이,월별상이,80000,140000
24,24,그랜드 청주,,,,301,회원제,27,충북,충청북도 청주시 청원구 오창읍 꽃화산길 14,http://www.grandgolf.co.kr/,043-212-7111,220000,260000,260000,260000,90000,140000(3부: 150000)
25,25,그린필드,,,,411,회원제,18,제주,제주특별자치도 제주시 조천읍 와흘리 산31,http://www.greenfieldcc.co.kr/,064-720-7000,109000,144000,144000,144000,100000,130000
26,26,그린힐,,,,120,회원제,18,경기,경기도 광주시 곤지암읍 이선리 208-2,http://www.shinancc.co.kr/greenhill/greenhill_main.shn,02-3467-0992,"월 195000
화~목 220000
금 240000",300000,280000,300000,100000,150000
27,27,글렌로스(P9),,,,326,대중제,9,경기,경기도 용인시 처인구 포곡읍 에버랜드로 562번길 69,http://www.golfsamsung.com/,1577-9727,월별상이,월별상이,월별상이,월별상이,90000(18H 기준),130000(18H 기준)
28,28,금강,,,,105,회원제,27,경기,경기 여주시 가남읍 여주남로 541,http://www.kccgolf.co.kr/,031-880-0707,200000,270000,270000,270000,100000,150000
29,29,금산에딘버러,,,,428,회원제,18,충남,충남 금산군 진산면 살구정길 167,http://www.edinburgh.co.kr/,041-750-0114,190000,230000,230000,230000,80000,140000
30,30,기흥,,,,312,회원제,36,경기,경기도 화성시 동탄면 풀무골로 106번길 244,http://www.ghcc.kr/,031-379-4001,210000,270000,270000,270000,100000,150000
31,31,나주부영,,,,831,대중제,18,전남,전라남도 나주시 혁신로 200,http://njbooyoungcc.co.kr/,061-320-5500,60000,90000,90000,90000,80000,120000
32,32,남서울,,,,130,회원제,18,경기,경기 성남시 분당구 판교백현로161.,http://www.nscc.co.kr/,031-709-6000,250000,290000,290000,290000,100000,140000
33,33,남양주(P9),,,,367,대중제,9,경기,경기도 남양주 오남읍 오남리 산 171-3,http://www.namyangjucc.co.kr/,031-529-6060,월별상이,월별상이,월별상이,월별상이,90000/18홀,140000/18홀
34,34,남원상록,,,,929,대중제,18,전북,전라북도 남원시 대산면 월계길 11,http://www.sangnokresort.co.kr/gate.home?cmd=namwonGC,063-630-1400,110000,150000,150000,150000,80000,130000
35,35,남춘천,,1,,707,대중제,18,강원,강원도 춘천시 신동면 혈동리 산222,http://www.namchuncheon.co.kr/,033-269-3000,220000,250000,250000,250000,100000,140000
37,37,내장산,,,,1133,대중제,18,전북,전라북도 정읍시 첨단과학로 476,http://www.naejangsancc.com/,063-570-7777,160000,190000,190000,190000,80000,140000
38,38,뉴서울,,,,106,회원제,36,경기,경기도 광주시 삼지곡길 95 (삼동 1번지),http://www.newseoulgolf.co.kr/,031-760-8000,200000,270000,270000,270000,100000,150000
39,39,뉴스프링빌,,,,109,회원제,36,경기,경기도 이천시 모가면 사실로 527번길 158,http://www.newspringvillecc.co.kr/,02-2263-0707,월별상이,월별상이,월별상이,월별상이,90000,130000
40,40,뉴코리아,,,,349,회원제,18,경기,경기도 고양시 덕양구 신원2로 57,http://www.newkoreacc.co.kr/,02-385-8080,210000,260000,250000,260000,100000,140000
41,41,다산베아채,,,,729,대중제,27,전남,전남 강진군 학장용산길 101 (도암면 학장리 216-4),http://www.beachegolf.com/,061-430-9999,135000(금 2부 155000),175000,175000,175000,100000,130000
42,42,다이아몬드,,,,536,대중제,18,경남,경상남도 양산시 상북면 상삼리 산 15번지,http://www.diamondcc.co.kr/,055-392-0700,월별상이,월별상이,월별상이,월별상이,80000,130000
43,43,담양레이나,,,,403,대중제,18,전남,전남 담양군 금성면 외추리 산79,http://www.reinacc.co.kr/,061-380-7500,147500,182500,182500,182500,90000,130000
44,44,대가야(P9),,,,1172,대중제,9,경북,경상북도 고령군 대가야읍 대가야로 1103,http://www.daegayacc.com/,054-956-0009,월별상이,월별상이,월별상이,월별상이,80000원,130000원
45,45,대영베이스,,,,194,대중제,18,충북,충청북도 충주시 대소원면 성종두담길 113번지,http://basecc.co.kr/default.aspx,043-850-8600,월별상이,월별상이,월별상이,월별상이,100000,12부 140000 / 3부 150000
46,46,대영힐스,,,1,951,대중제,27,충북,충청북도 충주시 대소원면 성종두담길 114,http://dyhills.basecc.co.kr:6443/Main/Main.aspx,043-850-8600,월별상이,월별상이,월별상이,월별상이,100000,12부 140000 / 3부 150000
48,48,대호단양,,1,,317,대중제,18,충북,충청북도 단양군 매포읍 고양5길 43,http://www.daehocc.co.kr/,043-420-7111,월별상이,월별상이,월별상이,월별상이,100000,140000(3부 160000/운전캐디 90000)
50,50,더 시에나컨트리클럽,제주컨트리클럽,,,613,대중제,18,제주,제주특별자치도 제주시 516로 2695(영평동),http://www.jejucountryclub.com/,064-702-0451,165000,195000,195000,195000,100000,130000
51,51,더크로스비,,1,1,850,대중제,27,경기,경기도 이천시 호법면 단천리 산 11-1,http://www.thecrosbygc.co.kr/,031-730-8600,190000,250000,250000,250000,100000,130000(11/1이후 140000)
55,55,더플레이어스,,1,,155,대중제,27,강원,강원도 춘천시 동산면 새술막길 438,http://www.playersgc.com/,033-250-5000,200000,250000,250000,250000,100000,140000
57,57,델피노설악,,,,153,대중제,18,강원,강원도 고성군 토성면 미시령옛길 1153,http://www.dgolfclub.com/main.dp/dmparse.dm,033-639-8401,210000,260000,260000,260000,100000,140000
58,58,동원썬밸리,,,1,1106,대중제,18,강원,강원도 횡성군 서원면 서원서로339번길 90,http://www.sunvalley.co.kr/dongwon/golf/intro,02-3660-3003,160000,220000,220000,220000,100000(27홀 150000),130000(27홀 200000)
59,59,동전주써미트,,,1,925,대중제,27,전북,전북 진안군 부귀면 봉암리 산80-1,http://www.summitcc.co.kr/,063-430-5000,150000,200000,200000,200000,90000,140000
61,61,동촌,,,1,924,대중제,18,충북,충청북도 충주시 노은면 감노로 1327,http://www.dongchongc.co.kr/,043-722-0707,월별상이,월별상이,월별상이,월별상이,90000,140000
63,63,드래곤레이크,,,,165,대중제,27,전북,전라북도 남원시 대사로 500,http://www.dragonlake.co.kr/,063-630-3000,월별상이,월별상이,월별상이,월별상이,100000(5인 125000),130000
64,64,드비치,,,,652,회원제,18,경남,경남 거제시 장목면 송진포리 산77-3,http://www.debeach.co.kr/,055-736-3000,180000,230000,230000,230000,90000,130000
66,66,떼제베,,,1,306,대중제,36,충북,충청북도 청주시 흥덕구 옥산면 동림2길 149,http://www.tgvcc.co.kr/,043-236-4381,월별 상이,월별 상이,월별 상이,월별 상이,90000,140000(3부 150000)
68,68,라데나,,,,473,회원제,27,강원,강원도 춘천시 신동면 칠전동길 72,http://www.ladena.co.kr/,033-260-1114,200000,250000,230000,250000,90000,140000
69,69,라비에벨 듄스코스,,,,377,대중제,18,강원,강원 춘천시 동산면 조양리 산 172,http://www.lavieestbellegolfnresort.com/,033-245-7100,1부 140000 2부 160000,1부 220000 2부 200000,1부 220000 2부 180000,1부 220000 2부 200000,80000,130000
70,70,라비에벨 올드코스,,,,525,대중제,18,강원,강원도 춘천시 동산면 조양리 산199,http://www.lavieestbellegolfnresort.com/,033-245-7000,월별상이,월별상이,월별상이,월별상이,80000,140000
71,71,라싸,,,1,1207,대중제,27,경기,경기도 포천시 이동면 연곡리 산 137번지,http://www.lassagc.com/index.asp,031-538-0600,월별상이,월별상이,월별상이,월별상이,90000,140000(5/1~)
73,73,라온,,,,354,대중제,27,제주,제주특별자치도 제주시 한경면 용금로 998,http://www.raon.co.kr/,064-795-8000,160000,200000,200000,200000,100000,140000
74,74,라헨느,,,,626,회원제,27,제주,제주특별자치도 제주시 봉개동 237-5,http://www.lareine.co.kr/,064-754-9000,150000,200000,200000,200000,100000,120000
75,75,레이캐슬,,,,1187,대중제,27,충남,세종특별자치시 전의면 의당전의로 252,http://www.sjraycastle.com/,1577-3113,190000,250000,250000,250000,90000,130000 (3/1이후 140000원)
76,76,레이크사이드,,,,990,회원제,18,경기,경기도 용인시 처인구 모현면 능원로 181,http://www.lakeside.kr/,031-334-2111,월별상이,월별상이,월별상이,월별상이,90000,130000
77,77,레이크우드,,,,113,회원제,36,경기,경기도 양주시 만송로 244,http://www.lakewood.co.kr/,031-820-1500,210000,270000,270000,270000,100000,140000
78,78,레이크힐스제주,,,,1519,회원제,27,제주,제주특별자치도 서귀포시 산록남로(중문동) 1391,http://lhjeju.co.kr/,064-738-8858,118000,150000,150000,150000,120000,120000
79,79,레인보우힐스,,,,686,대중제,27,충북,충청북도 음성군 생극면 생리 산14-1,http://www.rainbowhills.co.kr/index.asp,043-879-7950,~220000,~290000,~290000,~290000,90000,140000
80,80,로드힐스,,,,540,대중제,27,강원,강원도 춘천시 동산면 종자리로 148-16번지,http://www.lordhills.co.kr/,033-269-8888,180000,230000,230000,230000,90000,140000
81,81,로얄링스,현대더링스,,,873,대중제,36,충남,충청남도 태안군 태안읍 기업도시6길 43,http://www.royallinks.co.kr/,041-670-0333,180000,240000,240000,240000,90000,140000
82,82,로얄포레,,,,685,대중제,18,충북,충청북도 충주시 신니면 화치3길 35,http://www.royalforet.com/,043-857-5000,월별 상이,월별 상이,월별 상이,월별 상이,100000,12부 140000 / 3부 150000
83,83,롯데스카이힐김해,,,,699,회원제,18,경남,경상남도 김해시 진례면 고모로134번길 54-49,http://www.skyhill.co.kr/Gimhae,055-340-9000,190000,220000,220000,220000,90000,130000
84,84,롯데스카이힐부여,,,1,333,대중제,18,충남,충청남도 부여군 규암면 백제문로 470,http://www.skyhill.co.kr/htmlCC/buyeo/main/main.jsp,041-939-1700,월별상이,월별상이,월별상이,월별상이,90000,130000(7/1 부터 140000)
86,86,롯데스카이힐제주,,,,695,회원제,18,제주,제주특별자치도 서귀포시 상예로 530,http://www.skyhill.co.kr/htmlCC/jeju/main/main.jsp,064-731-2000,210000,270000,270000,270000,100000,130000
87,87,루나힐스안성,안성 아덴힐,1,1,747,대중제,18,경기,경기도 안성시 양성면 약산길 67-6,http://www.lunahills.co.kr/,031-612-6000,190000,290000,290000,290000,90000,140000 / 150000 (7월16일~)
90,90,루트52,,,,1415,대중제,18,경기,여주시 북내면 중암1길 36 루트52컨트리클럽,http://www.route52cc.com/,031-882-0052,월별상이,월별상이,월별상이,월별상이,,
91,91,리베라,,,,457,회원제,36,경기,경기도 화성시 동탄면 중리길 183,http://www.shinangolf.com/club/rivieracc,02-3467-0700,"월 210000
화~목 240000
금 260000",320000,300000,320000,100000,130000 (3부 140000)
93,93,리앤리,,,,154,대중제,27,경기,경기도 가평군 하면 운악청계로 702-24,http://www.leenleecc.co.kr/,031-580-9000,190000,250000,250000,250000,100000(2월부터 적용),140000
94,94,링크나인(P9),,1,,849,대중제,9,경기,경기도 화성시 마도면 고모리 625-2,http://www.linknine.co.kr/#3,031-831-0900,120000,160000,160000,160000,80000,140000
96,96,마론뉴데이,,,,680,회원제,18,충남,충청남도 천안시 동남구 북면 운용리 489,http://www.maronnewday.com/,041-623-5555,180000,230000,230000,230000,90000,140000
97,97,마에스트로,,,,985,대중제,18,경기,경기도 안성시 양성면 안성맞춤대로 2134-36,http://www.maestrocc.co.kr/,031-8046-1000,월별상이,월별상이,월별상이,월별상이,90000,130000
98,98,마우나오션,,,,384,회원제,18,경북,경상북도 경주시 양남면 동남로 982 마우나오션CC,http://www.mauna.co.kr/,054-740-0678,165000,190000,190000,190000,90000,1~2부 130000/3부 140000
99,99,몽베르,,,,311,회원제,36,경기,경기도 포천시 영북면 산정리 558 - 1,http://www.montvertcc.com/,031-531-1100,남170000 북190000,남230000 북250000,남230000 북250000,남230000 북250000,90000원,140000원
100,100,무안클린밸리,,,,774,대중제,18,전남,전라남도 무안군 청계면 태봉길 33-100번지 클린밸리,http://www.muancleanvalley.com/,061-452-3100,월별 상이,월별 상이,월별 상이,월별 상이,80000,130000
101,101,문경,,,,957,대중제,18,경북,경상북도 문경시 마성면 문경골프장길 240,http://www.mgle.co.kr/,054-550-5000,월별상이,월별상이,월별상이,월별상이,80000,130000
102,102,밀양 노벨,,,,1081,대중제,18,경남,경남 밀양시 단장면 안법리 산15번지,http://www.miryangnobelcc.co.kr/Miryang_nobel/html/company/company_05.asp#,055-359-8500,130000,170000,170000,170000,90000,130000(3부 140000)
103,103,발리오스,,,,390,회원제,18,경기,경기도 화성시 팔탄면 화당리 116번지,http://www.baliosgc.com/index.asp,031-352-5061,210000,270000,270000,270000,100000,140000
104,104,백제,,1,1,444,대중제,27,충남,충청남도 부여군 은산면 충절로 3734-82,http://www.baekjecc.com/,041-830-0700,150000,190000,180000,190000,80000,140000
107,107,벨라스톤,,1,1,206,대중제,18,강원,강원도 횡성군 서원면 옥계9길 124,http://www.bellastonecc.com/,033-340-9000,180000,240000,230000,240000,100000/노캐디시 120000,140000/ 마샬캐디 90000
110,110,보라,,,,642,회원제,27,경남,울산광역시 울주군 삼동면 삼동로 404,http://www.boracc.com/,052-255-1004,180000,230000,230000,230000,90000,130000
111,111,보령베이스(P9),,,,1370,대중제,9,충남,충남 보령시 옥마벚길 10(명천동),http://www.boryeongbase.co.kr/,041-939-3800,109000,159000,159000,159000,80000,140000
112,112,보문,,,,168,대중제,18,경북,경상북도 경주시 보문로 182-14번지,http://golf.gtc.co.kr/,054-745-1680,월별상이,월별상이,월별상이,월별상이,80000,130000
113,113,보성,,,,394,대중제,18,전남,전라남도 보성군 조성3길 338,http://www.bosungcc.co.kr/,061-804-1000,130000,170000,170000,170000,90000,130000
114,114,부곡,,,,651,회원제,18,경남,경상남도 창녕군 부곡면 온천로 445,http://www.bkcc.co.kr/,055-520-5000,150000,180000,180000,180000,90000,130000(3부 140000)
115,115,블랙스톤 벨포레,,1,,1131,대중제,18,충북,충청북도 증평군 도안면 벨포레길 346,http://www.blackstonebelleforet.com/,043-926-1001,월별상이,월별상이,월별상이,월별상이,100000,140000
117,117,블랙스톤제주,,,,1181,회원제,27,제주,제주특별자치도 제주시 한림읍 한창로 925-122,http://www.blackstoneresort.com/jj/,064-796-9988,220000,290000,290000,290000,100000,150000
118,118,블루원디아너스,,,,170,회원제,27,경북,경상북도 경주시 보불로 391,http://gj.blueone.com/index.jsp?,054-777-6601,월별상이,월별상이,월별상이,월별상이,90000,130000
119,119,블루원상주,,,,508,대중제,18,경북,경상북도 상주시 모서면 화현3길 127,http://sj.blueone.com/,054-530-8888,1500000,200000,200000,200000,90000,130000
121,121,블루원용인,,,,122,회원제,18,경기,경기도 용인시 처인구 원삼면 보개원삼로1534번길 40 ClubHouse,http://yi.blueone.com/,031-330-9700,월별상이,월별상이,월별상이,월별상이,90000,150000
122,122,블루헤런,,,,101,회원제,18,경기,경기도 여주시 대신면 고달사로 67,http://www.blueheron.co.kr/,031-880-0700,200000,270000,270000,270000,90000,130000/4월25일부터 150000원
123,123,비에이비스타,,,,981,"대중제,",36,경기,경기도 이천시 모가면 어농로 272,http://www.bavista.co.kr/,031-636-3577,220000,280000,270000,280000,100000,1-2부 140000(7/1부터 150000) 3부 150000
125,125,비콘힐스,,,,462,대중제,18,강원,강원도 홍천군 홍천읍 높은터로 533,http://www.beaconhills.co.kr/,033-439-5114,170000,240000,240000,240000,100000,140000
126,126,빅토리아(P9),,,,335,대중제,9,경기,경기도 여주시 가남읍 송림리 214,http://www.victoriagc.co.kr/,031-883-0111,월별상이,월별상이,월별상이,월별상이,90000,노캐디
127,127,사우스링스 영암,,,,149,대중제,18,전남,전라남도 영암군 삼호읍 에프원로 121-1,http://www.southlinks.co.kr/,061-460-6000,월별 상이,월별 상이,월별 상이,월별 상이,1인당 20000원,노캐디
128,128,사우스스프링스,,1,,396,대중제,18,경기,경기도 이천시 모가면 공원로 64,http://www.sscc.co.kr/,031-630-7000,월별상이,월별상이,월별상이,월별상이,100000,140000
130,130,샤인데일,,,,895,대중제,27,강원,강원도 홍천군 서면 동막리 산77번지,http://www.shinedale.com/,033-432-1111,월별 상이,월별 상이,월별 상이,월별 상이,100000,140000(3부 150000)
131,131,샴발라,,,1,284,대중제,18,경기,경기도 포천시 군내면 청군로 2856-93,http://www.shambhalacc.co.kr/,031-538-0500,210000,270000,270000,270000,100000,140000(특급캐디180000원)
133,133,서산수 단독,,,1,1006,대중제,18,충남,충청남도 서산시 대산읍 삼길포7로 6,http://seosansoo.com/,041-689-7700,월별 상이,월별 상이,월별 상이,월별 상이,90000,130000
134,134,서서울,,,,365,회원제,18,경기,경기도 파주시 광탄면 혜음로 324,http://www.seoseoul.co.kr/,02-6437-7000,200000,270000,270000,270000,100000,140000(3부 150000)
136,136,서원힐스,,1,1,1196,대중제,27,경기,경기도 파주시 광탄면 서원길 333,http://www.seowongolf.co.kr/,031-940-9400,월별상이,월별상이,월별상이,월별상이,90000,140000
139,139,석정힐,,,,152,대중제,18,전북,전라북도 고창군 고창읍 석정2로 192,http://www.hillcc.com/,063-560-7000,월별상이,월별상이,월별상이,월별상이,80000,140000
140,140,세레니티,실크리버,,,463,회원제,18,충북,충청북도 청주시 서원구 남이면 문곡구절골길235,http://www.serenitycc.co.kr/,043-277-5000,200000,250000,250000,250000,100000,150000
141,141,세븐밸리,,,1,893,대중제,18,경북,경상북도 칠곡군 왜관읍 봉계3길 180,http://www.sevenvalley.co.kr/,054-979-1000,150000,190000,190.000,190000,90000,130000
143,143,세이지우드 여수경도,,,,227,대중제,27,전남,전라남도 여수시 대경도길 111,http://www.yeosucc.co.kr/,061-660-1000,220000(금요일 2부 250000),280000,250000280000(2부 250000),280000,120000,130000
144,144,세이지우드 홍천,,,,921,대중제,27,강원,강원도 홍천군 광석로 898-160,http://www.sagewood.co.kr/hongcheon/golf,033-439-1000,월별상이,월별상이,월별상이,,120000,150000
145,145,세인트포(단독),,,,1357,대중제,36,제주,제주특별자치도 제주시 구좌읍 선유로 445-55,http://www.stfour.com/index.asp,064-786-3838,130000,170000,170000,170000,90000,130000
146,146,세일,,,,236,대중제,18,충북,충북 충주시 신니면 동락길 207번지,http://www.seilcc.co.kr/,043-841-6000,119000,169000,159000,169000,80000,120000
147,147,세현,,,,1300,대중제,18,경기,경기 용인시 처인구 이동읍 서리 70-3,http://www.sehyeoncc.com/,031-670-8800,월별상이,월별상이,월별상이,월별상이,100000,1-2부 140000 3부 150000
148,148,센추리21,,1,1,203,회원제,36,강원,강원도 원주시 문막읍 궁말길 193,http://www.century21cc.co.kr/,033-733-1000,190000,240000,240000,240000,100000,1~2부 140000/3부 150000
153,153,센테리움,,,,810,대중제,27,충북,충청북도 충주시 노은면 신효리 627-3번지,http://www.centeriumcc.com/,02-3468-7600,월별상이,월별상이,월별상이,월별상이,100000,140000
155,155,소피아그린,,,,435,대중제,27,경기,경기도 여주시 점동면 소피아그린길 84,http://www.sophiagreen.co.kr/,031-887-8100,월별 상이,월별 상이,월별 상이,월별 상이,90000,150000
156,156,솔라고,,,1,286,대중제,36,충남,충청남도 태안군 태안읍 송암리 1532-3,http://sollago.co.kr/,041-670-8888,160000,200000,200000,200000,90000,경력캐디14만 레드캐디11만/3부 드라이빙캐디9만
158,158,솔라시도,,,,1491,대중제,18,전남,전라남도 해남군 산이면 구성리 88-1,http://www.solaseadocc.com/main/main.asp,061-530-9500,월별 상이,월별 상이,월별 상이,월별 상이,100000,130000
159,159,솔모로,,1,1,440,회원제,36,경기,경기도 여주시 가남읍 솔모로그린길 171번지,http://www.solmoro.com/,031-880-7114,월별상이,월별상이,월별상이,월별상이,90000,150000
163,163,솔트베이,,1,,480,대중제,18,경기,경기도 시흥시 마유로 987,http://www.saltbay.co.kr/,031-400-0000,월별상이,월별상이,월별상이,월별상이,90000,140000
165,165,수원,,,,455,회원제,36,경기,경기도 용인시 기흥구 중부대로 495,http://www.suwoncc.co.kr/,031-288-6611,200000,260000,260000,260000,100000,130000
166,166,스마트KU,,,1,814,대중제,27,경기,경기도 파주시 법원읍 보광로 1616,http://kugolf.co.kr/,031-930-1623,월별 상이,월별 상이,월별 상이,월별 상이,80000,140000
168,168,스카이밸리,,1,1,107,회원제,36,경기,경기도 여주시 북내면 운촌길 254번지,http://www.skyvalley.co.kr/,031-880-8811,200000,270000,270000,270000,100000,150000
171,171,스톤게이트,,1,,1001,대중제,18,경남,부산광역시 기장군 일광면 곡천길 317,http://www.stonegatecc.co.kr/,051-722-7000,180000,220000,220000,220000,90000,1~2부-130000원 3부-140000원
173,173,스톤비치,,,,363,회원제,18,충남,충청남도 태안군 근흥면 갈음이길 77,http://stonebeach-cc.com/,041-670-7000,월별상이,월별상이,월별상이,월별상이,100000,140000
174,174,시그너스,,,1,305,회원제,27,충북,충청북도 충주시 양성면 중방곡길 57-44,http://www.cygnuscc.com/,043-857-5001,170000,230000,230000,230000,90000,150000
176,176,시티파크,,,,952,대중제,18,전남,전라남도 여수시 좌수영로 641,http://www.citypark.co.kr/,061-808-8000,100000원(3부:110000원),140000,140000,140000,90000,130000
177,177,신안,,1,,456,회원제,18,경기,경기도 안성시 고삼면 개울말길 149,http://www.shinangolf.com/,02-3467-0998,월별상이,월별상이,월별상이,월별상이,100000,150000(3부 160000)
180,180,써닝포인트,,,,140,대중제,18,경기,경기도 용인시 처인구 백암면 고안로 51번길 205,http://www.sunningpoint.com/,031-329-0800,195000,285000,285000,285000,90000,150000(7/1 부터 3부 160000)
181,181,썬힐,,,,112,대중제,36,경기,경기도 가평군 조종면 운악청계로 809 썬힐골프클럽,http://www.sunhillgolf.co.kr/,031-585-7900,월별상이,월별상이,월별상이,월별상이,90000,140000
182,182,아난티 중앙 골프클럽,진천 에머슨,1,1,145,회원제,27,충북,충청북도 진천군 백곡면 배티로 818-105,http://joongang.ananti.kr/kr/,043-533-6783,180000,240000,240000,240000,90000,140000
185,185,아델스코트,,,,382,대중제,27,경남,경상남도 합천군 가야면 가조가야로 1916-10,http://www.adelscott.co.kr/,055-930-7777,150000,180000,180000,180000,80000,130000
186,186,아리스타,,,,1156,대중제,18,충남,충남 논산시 연무읍 연무로 810,http://www.aristacc.co.kr/,041-741-0100,월별상이,월별상이,월별상이,월별상이,80000,130000
187,187,아리지,,,,366,대중제,27,경기,경기도 여주시 가남읍 아리지그린길 68,http://www.ariji.co.kr/,031-887-5678,월별상이,월별상이,월별상이,월별상이,90000,150000
188,188,아세코밸리(P9),,,,257,대중제,9,경기,경기도 시흥시 마전로 307,http://www.asecovalley.com/,031-488-8000,60000,70000,70000,70000,45000,140000
189,189,아시아나,,,,464,회원제,36,경기,경기도 용인시 처인구 양지면 양대로 290,http://www.asianacc.co.kr/,031-330-1111,210000,270000,270000,270000,100000,140000
190,190,아일랜드,,1,1,222,대중제,27,경기,경기도 안산시 단원구 대부남동 1369,http://www.islandresort.co.kr/,032-884-1004,250000,290000,290000,290000,100000,150000
194,194,아트밸리,,,,139,회원제,27,충북,충청북도 진천군 진천읍 송강로 783-51,http://www.artvalleycc.net/,043-531-3000,156000,199000,199000,199000,90000,120000
195,195,안동레이크,,,,795,대중제,18,경북,경상북도 안동시 관광단지로 316,http://hugreen.gtc.co.kr/,054-821-9191,월별상이,월별상이,월별상이,월별상이,80000,130000
196,196,안성,,,,603,회원제,18,경기,경기도 안성시 죽산면 장계길 134,http://www.ansungcc.co.kr/,031-674-9121,220000,280000,280000,280000,90000,130000/6월6일부터 15만
201,202,알펜시아,,,,157,회원제,27,강원,강원도 평창군 대관령면 용산리 406-13,http://www.alpensiaresort.co.kr/index.gdc?varIntro=pass,033-335-7500,월별상이,월별상이,월별상이,월별상이,100000,130000
202,203,알프스대영,,,,414,대중제,18,강원,강원도 횡성군 우천면 한우로 1295,http://www.alpsdy.com/main/,033-340-8000,109000~,169000~,169000~,169000~,100000,140000 / 5인 210000/3부 150000
203,204,애플밸리(P9),,,,493,대중제,9,경북,경상북도 김천시 어모면 작점로 606,http://applevalley.co.kr/,054-429-0700,월별상이,월별상이,월별상이,월별상이,90000,130000
204,205,양산,,1,,650,대중제,27,경남,경상남도 양산시 상북면 충렬로 687,http://www.yangsancc.co.kr/,055-379-0000,140000,180000,180000,180000,80000,130000
206,207,양산동원로얄,,,,786,대중제,18,경남,경상남도 양산시 어실로 380-45(어곡동 산283),http://www.dongwonroyalcc.co.kr/index.asp,055-389-7000,160000,190000,190000,190000,80000,130000
207,208,양주,,,1,310,회원제,18,경기,경기도 남양주시 화도읍 북한강로1525-52,http://www.yangjucc.co.kr/,031-592-6060,210000,270000,270000,270000,120000,140000
209,210,양지파인,,1,1,131,대중제,27,경기,경기도 용인시 처인구 양지면 남평로 112,http://www.pineresort.com/,031-329-9500,200000,250000,250000,250000,88000,150000
212,213,양평TPC,,,1,118,대중제,27,경기,경기 양평군 지평면 대평리 산 112,http://www.tpcgolf.co.kr/,031-772-4400,월별상이,월별상이,월별상이,월별상이,90000,150000
214,215,에덴밸리,,,,649,회원제,18,경남,경상남도 양산시 원동면 어실로 1206,http://golf.edenvalley.co.kr/,055-379-9000,189000,223000,223000,223000,88000,130000
215,216,에덴블루,,,,968,대중제,27,경기,경기도 안성시 죽산면 녹배길 175,http://www.edenblue.co.kr/index.asp,1588-7207,월별상이,월별상이,월별상이,월별상이,100000,150000 (3부 160000)
216,217,에버리스,,,,619,회원제,27,제주,제주특별자치도 제주시 애월읍 평화로 1693-75,http://www.everis.co.kr/,064-795-5000,130000,162000,162000,162000,90000,130000
217,218,에스앤 대천 (P9),,,,279,대중제,9,충남,충청남도 보령시 남포면 양항리 645-5번지,http://www.sngolfresort.co.kr/,041-934-0100,110000,150000,140000,150000,90000,140000(8/1~)
218,219,에이원,,,,648,회원제,27,경남,경상남도 양산시 매곡동 산1번지,http://www.aonecc.co.kr/,055-371-3500,190000,240000,240000,240000,92000,130000
219,220,엠스클럽의성,,,,273,대중제,27,경북,경상북도 의성군 봉양면 신평리 산 107번지,http://www.msclub.co.kr/main/main.asp,054-830-3300,120000,150000,150000,150000,90000,130000
220,221,여주,,,1,128,회원제,27,경기,경기도 여주시 월평로 78,http://www.yeojoocc.co.kr/index.asp,031-880-0123,170000,230000,220000,230000,100000,150000
222,223,여주 회원제,,,,1201,회원제,18,경기,경기 여주시 금사면 장흥로 416,http://www.ipocc.com/,031-880-9000,190000,250000,250000,250000,100000,130000
223,224,여주신라,,1,1,108,대중제,27,경기,경기도 여주시 북내면 신라그린길 84,http://www.shillacc.com/,031-886-3030,280000,280000,280000,280000,90000,150000
226,227,여주 블루헤런 골프클럽,,,,1376,회원제,18,경기,경기도 여주시 대신면 상구리 산11-1,http://www.blueheron.co.kr/,031-880-0700,200000,270000,270000,270000,90000,150000
227,228,오너스,,1,1,936,대중제,18,강원,강원도 춘천시 남산면 동촌로 667,http://www.ownersgc.co.kr/,033-260-1918,190000,250000,250000,250000,100000,140000
231,232,오렌지듄스송도,,1,,178,대중제,18,경기,인천광역시 연수구 인천신항대로 1120,http://www.orangedunes.com/index.asp,032-830-8888,월별상이,월별상이,월별상이,월별상이,90000,140000
233,234,오션비치,,,,173,대중제,27,경북,경상북도 영덕군 강구면 동해대로 4265-43,http://www.oceanbeachcc.com/,054-730-9000,월별상이,월별상이,월별상이,월별상이,100000,130000
234,235,오창에딘버러(P9),,,,511,대중제,9,충북,충청북도 청주시 청원구 오창읍 두릉유리로 846,http://www.ochangedincc.com/,043-210-1900,130000,170000,170000,170000,80000,1~2부 140000 / 3부 150000
235,236,오크밸리,,,,748,회원제,36,강원,강원도 원주시 지정면 오크밸리 1길 66,http://www.oakvalley.co.kr/,1588-7676,월별상이,월별상이,월별상이,월별상이,100000,130000
236,237,오크크릭(P9),,,,201,대중제,9,강원,강원도 원주시 지정면 오크밸리 1길 66,http://www.oakvalley.co.kr/oak_new/new_golfmain.asp,1588-7676,월별상이,월별상이,월별상이,월별상이,90000,노캐디
237,238,오크힐스,,1,,362,회원제,18,강원,강원도 원주시 지정면 오크밸리 1길 66,http://www.oakvalley.co.kr/oak_new/new_golfmain.asp,1588-7676,250000,290000,290000,290000,100000,130000
240,241,옥스필드,,,1,472,대중제,18,강원,강원도 횡성군 서원면 경강로유현6길 28,http://www.ilcc.co.kr/index.asp,033-340-7700,월별상이,월별상이,월별상이,월별상이,90000,12부 140000 / 3부 150000
242,243,올데이,,,1,1332,대중제,27,충북,충청북도 충주시 앙성면 돈산리 169번지,http://www.ilcc.co.kr/index.asp,043-853-5555,월별상이,월별상이,월별상이,월별상이,100000,12부 140000 / 3부 150000
244,245,올림픽(P9),,,,723,대중제,9,경기,경기도 고양시 덕양구 백제동 465,http://olympicsports.co.kr/,031-962-0101,월별상이,월별상이,월별상이,월별상이,100000,140000
245,246,용원,,,,647,회원제,27,경남,경상남도 창원시 진행구 가주로 133,http://www.ywcc.co.kr/,055-552-0080,월별상이,월별상이,월별상이,월별상이,90000,120000(3부 130000)
246,247,용인,,,1,340,대중제,18,경기,경기도 용인시 처인구 백암면 석천리 747-1,http://www.yongincc.com/,031-332-2980,월별상이,월별상이,월별상이,월별상이,90000,130000(15시 이후 140000)
248,249,우리들,,,,614,대중제,18,제주,제주특별자치도 서귀포시 산록남로 2914,http://wooridulresort.com/index.php,1577-0064,160000,220000,220000,220000,100000,130000
249,250,웰리힐리,,1,,179,회원제,36,강원,강원도 횡성군 둔내면 고원로 451,http://www.wellihillipark.com/golf,033-340-1588,월별상이,월별상이,월별상이,월별상이,100000,140000
251,252,의령 리온,,,,586,대중제,27,경남,경상남도 의령군 칠곡면 자굴산로 101-33,http://www.rieoncc.co.kr/index.asp,055-570-7000,월별상이,월별상이,월별상이,월별상이,80000,130000
252,253,이글몬트,,,,1562,대중제,27,경기,경기도 안성시 보삼로 106,http://www.eaglemontcc.co.kr/,0312880900,월별상이,월별상이,월별상이,월별상이,100000,150000
253,254,이븐데일,,,,503,대중제,18,충북,충북 청주시 상당구 미원면 대신2길 31,http://www.evendale.co.kr/,043-288-1000,190000,240000,240000,240000,100000,140000(3부150000)
254,255,이지스카이,,,,1604,대중제,18,경북,경북 군위군 군위읍 대흥리 산 48,http://www.easyskycc.co.kr/,1833-6366,160000,190000,190000,190000,90000,130000
255,256,이천블랙스톤,이천명문회원제,1,,719,회원제,27,경기,경기도 이천시 장호원읍 풍계리 41-2,http://www.blackstoneresort.com/,031-643-2000,250000,280000,280000,280000,120000,150000
257,258,이포,,,1,330,회원제,18,경기,경기 여주시 금사면 장흥로 416,http://www.ipocc.com/,031-880-9000,220000,270000,270000,270000,100000,150000원
259,260,인서울27 단독,,,,1025,대중제,27,경기,서울특별시 강서구 오쇠동 1-2,http://www.inseoul27.co.kr/,02-6395-8000,월별 상이,월별 상이,월별 상이,월별 상이,90000,130000
260,261,인천그랜드,,,,104,대중제,18,경기,인천광역시 서구 원석로 195,http://www.incheongrand.cc/,032-584-3111,월별상이,월별상이,월별상이,월별상이,56000(모노레일),140000
261,262,일레븐,,1,1,1341,대중제,18,충북,충북 충주시 앙성면 본평리 산43-1,http://www.elevencc.co.kr/,043-880-3500,월별상이,월별상이,월별상이,월별상이,100000,140000 / 8월5일부터 15만
265,266,일죽 비공개 단독,썬 밸리 일죽,,,1204,대중제,18,충북,충북 음성군 삼성면 대사리 500-16,http://www.sunvalley.co.kr/main,043-881-5307,200000,260000,260000,260000,100000,140000
267,268,임페리얼레이크,,,,304,회원제,18,충북,충청북도 충주시 금가면 월상리 산95,http://www.ilcc.co.kr/,043-853-5555,월별상이,월별상이,월별상이,월별상이,100000,12부 140000 / 3부 150000
268,269,자유,,,,318,회원제,18,경기,경기도 여주시 가남읍 자유그린길 69,http://www.jayucc.co.kr/,031-887-7700,170000,240000,230000,240000,100000,150000
269,270,자유로,,,1,297,대중제,27,경기,경기도 연천군 백학면 학곡리 84,http://www.jayurocc.com/,031-839-1500,월별상이,월별상이,월별상이,월별상이,100000,140000
271,272,장수,,1,,215,대중제,18,전북,전라북도 장수군 계남면 궁양리 955,http://www.jangsugolf.com/,063-350-1000,월별상이,월별상이,월별상이,월별상이,80000,130000
273,274,정산,,,,646,회원제,27,경남,경상남도 김해시 주촌면 서부로1637번길 299-194,http://www.jeongsancc.co.kr/,055-338-8300,200000,250000,250000,250000,90000,130000
274,275,젠스필드(일죽),,,,504,대중제,18,충북,충청북도 음성군 삼성면 덕호로 382,http://www.zensfield.com/,1588-2911,200000,250000,250000,250000,100000,140000
275,276,죽향(P9),,,,1220,대중제,9,전남,전남 담양군 창평면 창평로 177,http://www.jhcc.co.kr/index.asp,061-382-7200,월~목 60000원 / 금 75000원,95000,95000,95000,80000,130000
276,277,중부,,,1,126,회원제,18,경기,경기 광주시 곤지암읍 경충대로 451,http://www.akdjbcc.co.kr/,031-762-6588,200000,270000,270000,270000,100000,150000
278,279,중원,,,1,315,대중제,27,충북,충청북도 충주시 산척면 인등로 392,http://www.joongwongolf.co.kr/,043-849-8000,월별상이,월별상이,월별상이,월별상이,80000,130000
280,281,진양밸리,,,,150,대중제,27,충북,충청북도 음성군 삼성면 금일로 1195,http://www.chinyangvalley.co.kr/,043-880-8000,일자별 공지요금,일자별 공지요금,일자별 공지요금,일자별 공지요금,100000,150000
281,282,천룡,,,,309,회원제,27,충북,충청북도 진천군 이월면 진안로 347-123,http://www.crcc.co.kr/,043-536-1001,190000,250000,250000,250000,90000,140000
282,283,천룡(P9),,,,303,대중제,9,충북,충청북도 진천군 이월면 진안로 347-123,http://www.crcc.co.kr/,043-536-2211,50000(9홀),70000(9홀),70000(9홀),70000(9홀),90000(18홀),140000(18홀)
283,284,천안상록,,,,675,대중제,36,충남,충남 천안시 수신면 수신로 576,http://www.sangnokresort.co.kr/,041-560-9100,129000,164000,164000,164000,60000,130000
284,285,캐슬렉스,,,1,314,회원제,18,경기,경기도 하남시 감이동 260-1번지,http://www.castlex-seoul.com/index.asp,02-480-5660,220000,270000,270000,270000,100000,130000
286,287,캐슬렉스제주,,,,610,회원제,18,제주,제주특별자치도 서귀포시 안덕면 평화로 1241,http://www.castlexjj.com/index.php,064-793-6630,146000,186000,186000,186000,90000,130000
287,288,캐슬파인,,,,124,대중제,18,경기,경기도 여주시 강천면 부평로 580,http://www.castlepine.co.kr/,031-880-8680,월별상이,월별상이,월별상이,월별상이,90000,150000
288,289,코리아,,,,210,회원제,27,경기,경기도 용인시 처인구 이동면 기흥단지로 579,http://www.kgav.com/,02-777-2167,200000,270000,270000,270000,100000,150000(3부 160000)
289,290,코리아(P9),,,,117,대중제,9,경기,경기도 용인시 기흥구 고매동 279-13,http://www.koreapublic.co.kr/,031-286-9500,65000(9홀),80000(9홀),80000(9홀),80000(9홀),44000,70000
290,291,코스카,,,,143,대중제,27,충북,충청북도 음성군 음성읍 동음로 318,http://www.koscacc.kr/,043-870-1000,월별상이,월별상이,월별상이,월별상이,90000,130000
291,292,큐로,,,,343,대중제,27,경기,경기도 광주시 곤지암읍 오향길 180,http://www.curocc.com/,031-799-6001,월별상이,월별상이,월별상이,월별상이,90000,150000
293,294,크리스탈밸리,,,,953,회원제,18,경기,경기도 가평군 상면 대보간선로 602-111,http://www.crystalvalley.co.kr/,02-737-0189,210000,270000,270000,270000,100000(18홀) 150000(27홀),150000(18홀) 210000(27홀)
294,295,클럽디거창,,,,1282,대중제,27,경남,경상남도 거창군 신원면 감악산로 436-58,http://www.clubd.com/geochang/index.do,055-945-2222,월별상이,월별상이,월별상이,월별상이,90000,140000(8/1~)
295,296,클럽디금강,,,,127,대중제,18,전북,전라북도 익산시 웅포면 강변로 130 (주)에메랄드골프리조트,http://www.clubd.co.kr/geumgang/index.do,063-720-7777,월별상이,월별상이,월별상이,월별상이,90000,130000
296,297,클럽디보은,,,,839,대중제,18,충북,충청북도 보은군 보은읍 장속중초로 386,http://www.clubd.co.kr/,043-540-8888,월별상이,월별상이,월별상이,월별상이,80000,130000
297,298,클럽디속리산,,,,142,대중제,18,충북,충청북도 보은군 탄부면 상장리 산30번지,http://www.clubd.co.kr/songnisan/index.do,043-540-8000,148000,198000,198000,198000,80000,130000
298,299,클럽모우,,1,1,1473,대중제,27,강원,강원도 홍천군 서면 장락동길 111,http://www.clubmow.com/,033-439-9001,183000,243000,243000(2부 213000),243000,100000,140000
301,302,킹스데일,,,,102,대중제,18,충북,충청북도 충주시 주덕읍 기업도시3로 2,http://www.kingsdale.co.kr/,043-870-4100,월별상이,월별상이,월별상이,월별상이,90000,140000
302,303,킹즈락,,,,289,대중제,27,충북,충북 제천시 천남동 282-1,http://kingsrockcc.com/,043-640-9000,월별상이,월별상이,월별상이,월별상이,90000,140000(드라이빙캐디 90000원)
303,304,타이거,,1,,878,대중제,18,경기,경기도 파주시 법원읍 웅담리 105-3,http://www.tigercc.co.kr/,031-958-8900,월별상이,월별상이,월별상이,월별상이,90000,140000
305,306,태광,,,,136,회원제,27,경기,경기도 용인시 기흥구 흥덕4로 77,http://www.taekwangcc.co.kr/,1877-6001,210000,270000,270000,270000,"100000/팀
/25000/1인",150000(5/1~)
306,307,통도파인이스트,,,,697,회원제,36,경남,경상남도 양산시 하북면 신평남부길 78-130,http://www.tongdocc.co.kr/,055-370-1300,월별상이,월별상이,월별상이,월별상이,90000,130000
307,308,통영동원로얄,,,,402,대중제,18,경남,경상남도 통영시 산양읍 영운리 산184-5번지,http://www.dongwonresort.co.kr/,055-640-5000,140000,175000,175000,175000,90000(6/20~),130000
308,309,파가니카,,,,721,대중제,18,강원,강원도 춘천시 남면 소주고개로 145-10번지,http://paganica.kmhleisure.com/Paganica/Default.aspx,033-261-6556,280000,320000,320000,320000,96000,140000
309,310,파나시아(P9),,,,698,대중제,9,충남,충남 당진군 신평면 도성리 460-29번지,http://www.panaceagc.com/,041-350-0900,월별상이,월별상이,월별상이,월별상이,90000,130000
310,311,파라지오,,,,751,대중제,18,경북,경북 의성군 봉양면 농공마전길 167,http://www.paragio.co.kr/,054-833-7100,150000,180000,180000,180000,90000,130000원
311,312,파인밸리,,,,205,대중제,18,강원,강원 삼척시 근덕면 교곡리 445-1,http://www.tyleisure.co.kr/03_pinevalley/main_sub.jsp,033-570-7700,월별상이,월별상이,월별상이,월별상이,90000,130000
312,313,파인비치,,,,184,대중제,27,전남,전라남도 해남군 시아로 224,http://www.pinebeachcc.co.kr/,061-530-7700,240000(금요일 290000),290000,290000,290000,100000,130000
313,314,파인스톤,,,,674,대중제,18,충남,충청남도 당진시 송산면 무수들길 90 파인스톤C.C,http://www.pinestonecc.com/,041-350-0000,월별상이,월별상이,월별상이,월별상이,90000,140000(3부 150000)
314,315,파인크리크,,,,998,대중제,27,경기,경기도 안성시 안성맞춤대로 2417-13,http://www.tyleisure.co.kr/02_pine/main_sub.jsp,031-670-0114,월별상이,월별상이,월별상이,월별상이,90000,150000
315,316,파인힐스,,,,357,대중제,27,전남,전라남도 순천시 주암면 송광사길 99,http://www.pinehills.co.kr/,061-750-9000,125000,165000,165000,165000,100000,130000
316,317,파주,,,,967,대중제,18,경기,경기도 파주시 법원읍 화합로 306,http://paju.kmhleisure.com/paju/Default.aspx,031-959-2905,280000,350000,350000,350000,100000,140000
317,318,파크밸리,,,,202,대중제,18,강원,강원도 원주시 소초면 바우실길 281,http://www.parkvalley.co.kr/,033-744-4000,월별상이,월별상이,월별상이,월별상이,88000,140000
318,319,페럼,,,,876,대중제,18,경기,경기도 여주시 점동면 점동로 181,http://www.ferrumclub.com/,031-887-7000,1부 200000 2부 220000,280000,280000,280000,90000,150000
319,320,펜타뷰(P9),,,,520,대중제,9,경북,경상북도 청도군 금천면 금천로 709,http://www.pentaview.co.kr/,1644-8053,90000(18홀 기준),140000(18홀 기준),140000(18홀 기준),140000(18홀 기준),80000(18홀 기준),130000(18홀 기준)
320,321,포도,,,,158,회원제,27,경북,경상북도 김천시 구성면 송죽리 611-2,http://www.podocc.com/,054-420-0202,월별상이,월별상이,월별상이,월별상이,90000,140000(8/1~)
321,322,포라이즌,승주,,,327,회원제,27,전남,전라남도 순천시 별량면 오실길 333,http://www.sjcc.co.kr/,061-740-8181,월별상이,월별상이,월별상이,월별상이,100000,130000
322,323,포레스트힐(P6),,,1,258,대중제,9,경기,경기도 포천시 화현면 봉화로 253,http://www.foresthill.kr/,031-530-8000,월별상이,월별상이,월별상이,월별상이,(12홀) 60000,노캐디
323,324,포천 회원제,,,,1235,회원제,36,경기,경기도 포천시 영북면 산정리 558 - 1,http://www.montvertcc.com/,031-531-1100,남150000 북170000,남210000 북230000,남210000 북230000,남210000 북230000,80000(2020년 2월부터 90000원),120000
324,325,포천아도니스,,,,445,회원제,27,경기,경기도 포천시 신북면 포천로 2499,http://www.adoniscc.co.kr/,031-530-9110,200000,260000,260000,260000,100000,140000
325,326,포천힐스,,1,1,599,대중제,27,경기,경기 포천시 군내면 상성북리 34번지,http://www.fortunehills.co.kr/,031-538-7000,월별상이,월별상이,월별상이,월별상이,90000,140000
328,329,푸른솔장성,,1,,842,대중제,27,전남,전라남도 장성군 동화면 남산리 874번지 (장성군 동화면 임정로 155),http://www.purunsolgc.co.kr/index.asp,061-399-6000,130000,170000,170000,170000,80000,130000
330,331,푸른솔포천,,1,1,997,대중제,27,경기,경기도 포천시 가산면 금우로 276,http://www.purunsol.co.kr/pochun_new/html/index.asp,031-850-3000,월별상이,월별상이,월별상이,월별상이,90000,140000
333,334,프리스틴밸리,,,1,805,회원제,18,경기,경기도 가평군 설악면 유명로 1243-199,http://pristinevalley.co.kr/,031-589-2000,200000,260000,260000,260000,100000,150000
335,336,프린세스,,,,373,대중제,18,충남,충청남도 공주시 정안면 인풍리 331,http://www.princessgc.co.kr/,041-851-6320,월별상이,월별상이,월별상이,월별상이,80000,140000(5/23~)
336,337,플라자설악,,,1,369,회원제,18,강원,강원도 속초시 미시령로2983번길 111,http://www.plazacc.co.kr/plzcc/irsweb/golf2/course/seorak/seorak_club.do,033-630-5511,180000,220000,220000,220000,100000,140000
338,339,플라자용인,,,,386,회원제,36,경기,경기도 용인시 처인구 남사면 봉무리 257-1,http://www.plazacc.co.kr/,031-333-1144,210000,280000,280000,280000,100000,150000 / 3부 160000
339,340,플라자제주(P9),,,,496,대중제,9,제주,제주특별자치도 제주시 명림로 575-107 한화리조트,http://www.plazacc.co.kr/plzcc/irsweb/golf2/course/jeju/jejuCourse_hole1.do?ccg_hole=1&brch_cd=1100&cors_cd=,064-727-9000,110000,135000,135000,135000,80000,130000
340,341,핀크스,,,,605,회원제,18,제주,제주특별자치도 서귀포시 안덕면 산록남로 863,http://www.thepinx.co.kr/golfclub/,064-792-8000,230000,280000,280000,280000,90000,130000
341,342,필로스,,,,114,대중제,27,경기,경기 포천시 일동면 기산리 산142-1,http://www.philosgc.com/,031-539-8900,210000,280000,280000,280000,90000,140000
344,345,한림광릉,,,,801,회원제,18,경기,경기도 남양주시 진접읍 팔야로 280,http://www.kwangneungcc.co.kr/,031-529-8000,210000,270000,270000,270000,90000,140000
346,347,한맥,,,,254,대중제,18,경북,경상북도 예천군 호명면 한맥골프장길 72,http://www.hmcn.co.kr/index.asp,054-650-7000,130000,190000,190000,190000,90000,140000(3부 150000원)
347,348,한성,,,,338,회원제,27,경기,경기도 용인시 기흥구 구교동로 151,http://www.hansung-cc.co.kr/,02 943 4501,210000,2700000,270000,270000,100000,150000
348,349,한양파인(P9),,,,738,대중제,9,경기,경기도 고양시 덕양구 고양대로 1591,http://www.hypine.co.kr/,031-930-9100,120000,160000,160000,160000,80000,140000
349,350,한원,,1,,115,회원제,27,경기,경기도 용인시 처인구 남사면 전나무골길 2번길 94,http://www.hanwoncc.co.kr/,031-379-8111,200000,260000,260000,260000,90000,12부 140000 / 3부 150000
351,352,해비치 제주,,,,601,회원제,36,제주,제주특별자치도 서귀포시 남원읍 원님로399번길 319,http://www.haevichi.com/ccjeju/ko/,064-766-6200,200000,240000,240000,240000,80000,130000
352,353,해솔리아,,,,141,대중제,27,경기,경기도 용인시 처인구 이동면 백자로 297번길 74,http://www.haesoliacc.co.kr/index.asp,031-321-7755,월별상이,월별상이,월별상이,월별상이,100000,140000 / 3부 150000(정규)
353,354,해운대,,,,636,회원제,27,경남,부산광역시 기장군 정관면 병산2로 265,http://www.haeundaecc.co.kr/,051-726-8000,"1부 165000
2부 180000",220000,220000,220000,90000,130000
354,355,해운대비치,,,,1369,회원제,18,경남,부산광역시 기장군 기장읍 대변로 74,http://www.haeundaebeachcc.com/intro/intro.do,051-726-0707,190000,240000,240000,240000,90000,130000(3부 140000)
355,356,화성(P9),,,,418,대중제,9,경기,경기 화성시 북양동 209번지,http://www.hwaseonggc.com/index1.asp,031-369-8900,130000(18홀),170000(18홀),170000(18홀),170000(18홀),80000원(18홀),140000원(18홀)
356,357,화성상록,,,,419,대중제,27,경기,경기도 화성시 동탄면 풀무골로 60번길 80,http://www.sangnokresort.co.kr/gate.home?cmd=hwaseongGC,031-371-0100,170000,220000,220000,220000,80000,130000
357,358,화순,,,,347,회원제,27,전남,전라남도 화순군 천태로 1000-151,http://www.hwasuncc.co.kr/,061-373-9955,150000,190000,190000,190000,80000,130000
358,359,히든밸리,,,,389,대중제,27,충북,충청북도 진천군 백곡면 소토골길 61,http://www.hiddenvalley.co.kr/,043-539-7900,월별상이,월별상이,월별상이,월별상이,90000,130000(5/20부터 140000)
359,360,힐드로사이,,,1,690,대중제,18,강원,강원도 홍천군 남면 한서로 2840,http://www.hilldeloci.co.kr/index.asp,033-439-3300,월별상이,월별상이,월별상이,월별상이,100000,140000
361,362,힐마루,,,,497,회원제,36,경남,경상남도 창녕군 장마면 영산계성로 469-195,http://www.hillmaru.com/,055-520-8000,월별상이,월별상이,월별상이,월별상이,90000,130000